#aV2021  3 20  0  0  0.00000000     288 DD+AD WGS84 FIT  NGA
## 2149 518400.00000000   300.00000000 59293 0.0000000000000
+   32     1  2  3  4  5  6  7  8  9 10 11 12 13 14 15 16 17
+         18 19 20 21 22 23 24 25 26 27 28 29 30 31 32  0  0
+          0  0  0  0  0  0  0  0  0  0  0  0  0  0  0  0  0
+          0  0  0  0  0  0  0  0  0  0  0  0  0  0  0  0  0
+          0  0  0  0  0  0  0  0  0  0  0  0  0  0  0  0  0
++         2  2  2  2  2  2  2  2  2  2  2  2  2  2  2  2  2
++         2  2  2  2  2  2  2  2  2  2  2  2  2  2  2  0  0
++         0  0  0  0  0  0  0  0  0  0  0  0  0  0  0  0  0
++         0  0  0  0  0  0  0  0  0  0  0  0  0  0  0  0  0
++         0  0  0  0  0  0  0  0  0  0  0  0  0  0  0  0  0
%c cc cc ccc ccc cccc cccc cccc cccc ccccc ccccc ccccc ccccc
%c cc cc ccc ccc cccc cccc cccc cccc ccccc ccccc ccccc ccccc
%f  0.0000000  0.000000000  0.00000000000  0.000000000000000
%f  0.0000000  0.000000000  0.00000000000  0.000000000000000
%i    0    0    0    0      0      0      0      0         0
%i    0    0    0    0      0      0      0      0         0
/*      NGA, ST. LOUIS,MO.                                  
/*   EPHEMERIS COMPUTED FROM 2 DAYS OF DATA                 
/*   EPOCHA v5 SMOOTHER                                     
/*   G2139 IERS2010 SATAF SATAPC                            
*  2021  3 20  2 35  0.00000000
P  1  16659.520216  13699.757020 -15975.056634    737.179941                    
V  1 -19553.987441  -2227.860604 -22318.639786     -0.089485                    
P  2   8154.414291 -14304.011973  21507.812726   -587.782027                    
V  2  25624.720001   2910.960711  -7991.983816     -0.036474                    
P  3  13068.820701  22264.894876   6397.640863   -112.916835                    
V  3    641.777777   8515.126331 -30459.031460     -0.106609                    
P  4   6842.030835  14578.445151  21118.702707   -187.193014                    
V  4 -18228.214030  19674.962612  -7730.774707     -0.022182                    
P  5  -2420.562311 -24296.568298  10077.338159    -36.698842                    
V  5   7651.880474  10984.492508  28086.421038     -0.010521                    
P  6  20525.636017  -7015.017558  15432.391150      1.790097                    
V  6  18910.125440   4615.513527 -23091.468846      0.020931                    
P  7  25558.637051   7304.960943   3957.178050     95.530660                    
V  7  -4923.537974   1781.049056  30718.779260      0.122997                    
P  8    141.280980  19560.962861 -17821.914597    -14.387985                    
V  8 -15429.097077  16771.777692  18581.589255     -0.014194                    
P  9  15812.635900   3951.329807  20915.235694   -332.472531                    
V  9 -15996.210888  21411.314771   8003.344939     -0.030919                    
P 10 -14649.138893   3586.370911 -21760.522479    -84.598868                    
V 10  -9821.027576 -26078.527730   2043.061183     -0.079090                    
P 11  10583.978074  13341.770840 -20774.555753      5.970750                    
V 11 -23990.539368   9090.658927  -6897.990247      0.106534                    
P 12  -9421.793110 -24716.171200   2950.528010    -16.348214                    
V 12   1025.052539  -4513.222125 -31658.749235     -0.053210                    
P 13  10179.041341 -21190.188141 -12370.759510    109.869197                    
V 13  12826.896719  -9025.166762  26420.264272      0.044725                    
P 14  15311.897482  -2089.140059 -21614.989023     99.728391                    
V 14   8203.272424  26173.132446   3267.163170     -0.005382                    
P 15  -3184.717746 -19609.051699 -17818.147800   -161.952757                    
V 15  13896.800642 -17412.179383  17379.634756      0.025923                    
P 16  -2166.544561  23149.034089  12155.402539   -296.667673                    
V 16  -6555.779511 -14758.533530  26863.803431     -0.058144                    
P 17  20890.144108 -11898.614598 -10857.032888    412.554886                    
V 17  -8355.477362  11899.399424 -28019.114899      0.063016                    
P 18 -26132.791212  -4924.683354     27.750114    350.855327                    
V 18    514.748016  -2515.532274  31858.629603      0.007433                    
P 19  20429.605017 -16501.980825  -3876.402392    -24.070819                    
V 19  -1719.454217   4768.206752 -31768.777634      0.050185                    
P 20 -18877.883106 -10963.396867 -15312.984080    524.031990                    
V 20  -7312.704260 -18098.613208  21723.516760     -0.003756                    
P 21   9594.079101  14616.616055 -19402.457003    104.501049                    
V 21 -26109.654295  -1217.109107 -12893.043042      0.030015                    
P 22   9811.851322  24608.515038  -2761.638960   -656.737900                    
V 22  -4792.317501  -1811.286870 -30768.766975      0.081967                    
P 23 -17224.766708  -8204.089259 -18515.830075    117.046196                    
V 23  -7497.918379 -22262.609454  16816.413046     -0.011111                    
P 24 -11705.398727 -15085.451371 -18859.381770      0.829776                    
V 24  23432.317099    747.130986 -14947.330138     -0.004527                    
P 25 -16346.265720 -15421.590993  14107.793436    102.227777                    
V 25  -4557.582943 -17789.951312 -24006.537426      0.074313                    
P 26  -8099.405364  16417.858991  19097.304854     60.495579                    
V 26 -11148.241310 -21898.263986  14320.569463      0.053272                    
P 27 -10674.477561  22482.151890  -8890.676852    -97.230944                    
V 27  -8905.575098   7115.477595  29585.590306     -0.070986                    
P 28  13919.893295  -4731.219199 -21568.598974    599.568522                    
V 28   7552.103781  27681.038530   -985.261258     -0.056855                    
P 29 -15378.705538  -4245.615486  21198.452906   -314.968356                    
V 29  18140.022668 -19930.379056   9109.641933     -0.068835                    
P 30  25181.748460  -1588.046861  -8609.005832   -400.922187                    
V 30  10186.742081   5111.908167  28457.899253     -0.054647                    
P 31 -18860.921722   8488.861063  16837.145682   -106.619124                    
V 31 -20683.169217  -5601.389969 -19789.951562     -0.022349                    
P 32 -20211.369350  13818.938787  -9975.821271     21.451381                    
V 32   5960.320088 -11743.989420 -28220.248903      0.005735                    
EOF
